ONEWEB-0267             
1 48985U 21060U   25344.21230604  .00000036  00000+0  61110-4 0  9990
2 48985  87.9042 266.4012 0001967  73.0156 287.1190 13.16597138214720
ONEWEB-0268             
1 48986U 21060V   25344.48464413  .00000123  00000+0  28879-3 0  9998
2 48986  87.9045 266.3554 0001731  75.1702 284.9621 13.16595733215020
ONEWEB-0269             
1 48987U 21060W   25344.76962392  .00000051  00000+0  99092-4 0  9995
2 48987  87.9034 266.3207 0001678  81.0046 279.1275 13.16596500214833
ONEWEB-0270             
1 48988U 21060X   25344.48305701  .00000074  00000+0  16064-3 0  9992
2 48988  87.9045 266.3575 0001955  63.0986 297.0344 13.16596588214837
ONEWEB-0271             
1 48989U 21060Y   25344.77439318  .00000084  00000+0  18502-3 0  9997
2 48989  87.9048 266.2880 0001953  70.7390 289.3952 13.16594515214872
ONEWEB-0272             
1 48990U 21060Z   25344.72055367  .00000060  00000+0  12260-3 0  9991
2 48990  87.9037 266.3149 0001996  77.0483 283.0871 13.16596111214810
ONEWEB-0273             
1 48991U 21060AA  25344.74271242  .00000015  00000+0  67396-5 0  9998
2 48991  87.9045 266.3058 0001825  69.1533 290.9793 13.16596126214791
ONEWEB-0274             
1 48992U 21060AB  25344.76805197  .00000069  00000+0  14703-3 0  9994
2 48992  87.9035 266.3230 0001950  84.2798 275.8555 13.16594702214834
